[{"OBJECT_NAME":"JILIN-1 GAOFEN 03D50","OBJECT_ID":"2022-167J","EPOCH":"2026-03-09T22:35:59.947584","MEAN_MOTION":15.32279726,"ECCENTRICITY":0.00065764,"INCLINATION":97.6731,"RA_OF_ASC_NODE":232.9458,"ARG_OF_PERICENTER":101.1473,"MEAN_ANOMALY":259.0507,"EPHEMERIS_TYPE":0,"CLASSIFICATION_TYPE":"U","NORAD_CAT_ID":54690,"ELEMENT_SET_NO":999,"REV_AT_EPOCH":18014,"BSTAR":0.00049467973,"MEAN_MOTION_DOT":0.00015359,"MEAN_MOTION_DDOT":0},{"OBJECT_NAME":"STARLINK-35551","OBJECT_ID":"2025-243Z","EPOCH":"2026-03-09T17:52:44.258016","MEAN_MOTION":15.30165645,"ECCENTRICITY":0.00010169,"INCLINATION":53.1601,"RA_OF_ASC_NODE":244.891,"ARG_OF_PERICENTER":74.5562,"MEAN_ANOMALY":285.5552,"EPHEMERIS_TYPE":0,"CLASSIFICATION_TYPE":"U","NORAD_CAT_ID":66200,"ELEMENT_SET_NO":999,"REV_AT_EPOCH":2066,"BSTAR":0.0008262521,"MEAN_MOTION_DOT":0.00024166,"MEAN_MOTION_DDOT":0}]
